CONNECTA IOT-1          
1 60472U 24149E   26160.73969230  .00003739  00000+0  15970-3 0  9999
2 60472  97.3757 237.1570 0000936   0.6794 359.4444 15.23483680100664
LOPEN                   
1 60473U 24149F   26160.72094447  .00014658  00000+0  37564-3 0  9993
2 60473  97.3777 244.0318 0000104 187.2348 172.8896 15.39473353101110
ROCK                    
1 60474U 24149G   26160.18749517  .00013436  00000+0  34478-3 0  9993
2 60474  97.3771 243.5104 0000362 230.4603 129.6611 15.39453605101037
CONNECTA IOT-3          
1 60475U 24149H   26160.10431988  .00003537  00000+0  15119-3 0  9998
2 60475  97.3731 236.2881 0001462 315.8124  44.2996 15.23489837100578
QUBE                    
1 60476U 24149J   26160.47623856  .00020797  00000+0  41538-3 0  9997
2 60476  97.3772 246.7634 0001291 217.1559 142.9602 15.46850167101273
WREN-1                  
1 60478U 24149L   26160.21431269  .00017736  00000+0  42822-3 0  9992
2 60478  97.3763 244.2453 0002915 289.5873  70.5059 15.41244326101094
TOMORROW-S1             
1 60479U 24149M   26160.69356115  .00006938  00000+0  22278-3 0  9996
2 60479  97.3747 241.1901 0000997 265.4248  94.6881 15.32612698100942
FLOCK 4BE-18            
1 60480U 24149N   26160.22743855  .00015533  00000+0  37102-3 0  9991
2 60480  97.3727 243.8755 0002382 275.6171  84.4805 15.41601022101084
FLOCK 4BE-7             
1 60481U 24149P   26160.68164868  .00018732  00000+0  47087-3 0  9990
2 60481  97.3754 243.6882 0001539 279.5859  80.5214 15.40010440101092
TOMORROW-S2             
1 60485U 24149T   26160.46306144  .00006529  00000+0  20967-3 0  9994
2 60485  97.3815 241.4419 0001396 322.2145  37.8999 15.32635927100909
FLOCK 4BE-36            
1 60486U 24149U   26160.72238601  .00015739  00000+0  36490-3 0  9997
2 60486  97.3743 245.0626 0002131 296.2508  63.8520 15.42495170101209
FLOCK 4BE-25            
1 60487U 24149V   26160.73938194  .00013266  00000+0  34949-3 0  9993
2 60487  97.3796 243.8403 0000801 274.2294  85.8859 15.38647088101095
FLOCK 4BE-31            
1 60488U 24149W   26160.69499975  .00018728  00000+0  41511-3 0  9999
2 60488  97.3797 245.8718 0001099 299.0487  61.0650 15.43803768101222
FLOCK 4BE-20            
1 60489U 24149X   26160.76412537  .00013294  00000+0  35914-3 0  9990
2 60489  97.3695 242.7633 0002214 292.6632  67.4379 15.37868141101073
FLOCK 4BE-23            
1 60490U 24149Y   26160.68743889  .00011535  00000+0  31584-3 0  9995
2 60490  97.3776 243.0585 0001912 306.7096  53.3973 15.37488179101040
FLOCK 4BE-15            
1 60491U 24149Z   26160.19227076  .00076187  00000+0  99695-3 0  9998
2 60491  97.3684 245.2828 0002046 254.4230 105.6800 15.58362814101186
FLOCK 4BE-17            
1 60492U 24149AA  26160.48683624  .00013804  00000+0  35282-3 0  9995
2 60492  97.3767 243.7970 0001542 282.6686  77.4387 15.39567880101071
NUSAT-50 (NANCY ROMAN)  
1 60493U 24149AB  26160.18831881  .00008258  00000+0  28942-3 0  9995
2 60493  97.3784 241.5008 0002707 200.4246 159.6887 15.29716764100908
FLOCK 4BE-22            
1 60494U 24149AC  26160.79994267  .00014854  00000+0  36273-3 0  9996
2 60494  97.3732 244.2923 0002137 297.5252  62.5777 15.40941466101160
FLOCK 4BE-34            
1 60495U 24149AD  26160.68720981  .00013912  00000+0  33991-3 0  9993
2 60495  97.3777 244.9966 0002122 314.3606  45.7466 15.40941345101174
TYCHE                   
1 60496U 24149AE  26160.72565975  .00003896  00000+0  15468-3 0  9998
2 60496  97.3753 238.6415 0000818 333.0252  27.0944 15.25926801100764
FLOCK 4BE-32            
1 60497U 24149AF  26160.20630036  .00015585  00000+0  36870-3 0  9991
2 60497  97.3718 244.0489 0002194 304.4973  55.6066 15.41891132101106
NUSAT-48 (HENRIETTA LE*)
1 60498U 24149AG  26160.83137847  .00008893  00000+0  30885-3 0  9997
2 60498  97.3912 242.3687 0002571 315.4018  44.7015 15.29992725101014
FLOCK 4BE-30            
1 60499U 24149AH  26160.73095374  .00126567  00000+0  18842-2 0  9992
2 60499  97.3780 246.0089 0003218 241.3656 118.7275 15.54678991100618
NUSAT-49 (KLARA DAN VO*)
1 60500U 24149AJ  26160.48254546  .00008000  00000+0  27960-3 0  9998
2 60500  97.3778 241.8242 0001648  17.2484 342.8812 15.29818787100951
FLOCK 4BE-11            
1 60501U 24149AK  26160.20516126  .00015236  00000+0  35067-3 0  9990
2 60501  97.3699 244.2706 0002338 303.1855  56.9168 15.42722134101124
YAM-7                   
1 60504U 24149AN  26160.74076935  .00006617  00000+0  21859-3 0  9998
2 60504  97.3780 241.0210 0002498 347.0394  13.0783 15.31717064100912
FLOCK 4BE-24            
1 60505U 24149AP  26160.71100427  .00019461  00000+0  44597-3 0  9995
2 60505  97.3713 245.0349 0002545 313.1641  46.9394 15.42799545101211
LUR-1                   
1 60506U 24149AQ  26160.72277826  .00006331  00000+0  22054-3 0  9991
2 60506  97.3736 239.6055 0003410 354.0098   6.1101 15.30009381100832
