OBJECT_NAME,OBJECT_ID,EPOCH,MEAN_MOTION,ECCENTRICITY,INCLINATION,RA_OF_ASC_NODE,ARG_OF_PERICENTER,MEAN_ANOMALY,EPHEMERIS_TYPE,CLASSIFICATION_TYPE,NORAD_CAT_ID,ELEMENT_SET_NO,REV_AT_EPOCH,BSTAR,MEAN_MOTION_DOT,MEAN_MOTION_DDOT
CONNECTA IOT-1,2024-149E,2026-06-09T17:45:09.414720,15.23483680,.00009369,97.3757,237.1570,0.6794,359.4444,0,U,60472,999,10066,.15969635E-3,.3739E-4,0
LOPEN,2024-149F,2026-06-09T17:18:09.602208,15.39473353,.00001044,97.3777,244.0318,187.2348,172.8896,0,U,60473,999,10111,.37563651E-3,.14658E-3,0
ROCK,2024-149G,2026-06-09T04:29:59.582688,15.39453605,.00003621,97.3771,243.5104,230.4603,129.6611,0,U,60474,999,10103,.34478196E-3,.13436E-3,0
CONNECTA IOT-3,2024-149H,2026-06-09T02:30:13.237632,15.23489837,.00014626,97.3731,236.2881,315.8124,44.2996,0,U,60475,999,10057,.15119493E-3,.3537E-4,0
QUBE,2024-149J,2026-06-09T11:25:47.011584,15.46850167,.00012919,97.3772,246.7634,217.1559,142.9602,0,U,60476,999,10127,.41537555E-3,.20797E-3,0
WREN-1,2024-149L,2026-06-09T05:08:36.616416,15.41244326,.0002915,97.3763,244.2453,289.5873,70.5059,0,U,60478,999,10109,.42822E-3,.17736E-3,0
TOMORROW-S1,2024-149M,2026-06-09T16:38:43.683360,15.32612698,.00009975,97.3747,241.1901,265.4248,94.6881,0,U,60479,999,10094,.22278079E-3,.6938E-4,0
FLOCK 4BE-18,2024-149N,2026-06-09T05:27:30.690720,15.41601022,.0002382,97.3727,243.8755,275.6171,84.4805,0,U,60480,999,10108,.37102E-3,.15533E-3,0
FLOCK 4BE-7,2024-149P,2026-06-09T16:21:34.445952,15.40010440,.0001539,97.3754,243.6882,279.5859,80.5214,0,U,60481,999,10109,.47087344E-3,.18732E-3,0
TOMORROW-S2,2024-149T,2026-06-09T11:06:48.508416,15.32635927,.00013964,97.3815,241.4419,322.2145,37.8999,0,U,60485,999,10090,.20966941E-3,.6529E-4,0
FLOCK 4BE-36,2024-149U,2026-06-09T17:20:14.151264,15.42495170,.00021316,97.3743,245.0626,296.2508,63.8520,0,U,60486,999,10120,.36490438E-3,.15739E-3,0
FLOCK 4BE-25,2024-149V,2026-06-09T17:44:42.599616,15.38647088,.00008019,97.3796,243.8403,274.2294,85.8859,0,U,60487,999,10109,.34949461E-3,.13266E-3,0
FLOCK 4BE-31,2024-149W,2026-06-09T16:40:47.978400,15.43803768,.00010999,97.3797,245.8718,299.0487,61.0650,0,U,60488,999,10122,.41511284E-3,.18728E-3,0
FLOCK 4BE-20,2024-149X,2026-06-09T18:20:20.431968,15.37868141,.00022144,97.3695,242.7633,292.6632,67.4379,0,U,60489,999,10107,.35914145E-3,.13294E-3,0
FLOCK 4BE-23,2024-149Y,2026-06-09T16:29:54.720096,15.37488179,.00019129,97.3776,243.0585,306.7096,53.3973,0,U,60490,999,10104,.31584309E-3,.11535E-3,0
FLOCK 4BE-15,2024-149Z,2026-06-09T04:36:52.193664,15.58362814,.00020468,97.3684,245.2828,254.4230,105.6800,0,U,60491,999,10118,.99695254E-3,.76187E-3,0
FLOCK 4BE-17,2024-149AA,2026-06-09T11:41:02.651136,15.39567880,.00015429,97.3767,243.7970,282.6686,77.4387,0,U,60492,999,10107,.35282086E-3,.13804E-3,0
NUSAT-50 (NANCY ROMAN),2024-149AB,2026-06-09T04:31:10.745184,15.29716764,.00027072,97.3784,241.5008,200.4246,159.6887,0,U,60493,999,10090,.28941543E-3,.8258E-4,0
FLOCK 4BE-22,2024-149AC,2026-06-09T19:11:55.046688,15.40941466,.0002137,97.3732,244.2923,297.5252,62.5777,0,U,60494,999,10116,.36272556E-3,.14854E-3,0
FLOCK 4BE-34,2024-149AD,2026-06-09T16:29:34.927584,15.40941345,.00021223,97.3777,244.9966,314.3606,45.7466,0,U,60495,999,10117,.33991203E-3,.13912E-3,0
TYCHE,2024-149AE,2026-06-09T17:24:57.002400,15.25926801,.00008185,97.3753,238.6415,333.0252,27.0944,0,U,60496,999,10076,.15467594E-3,.3896E-4,0
FLOCK 4BE-32,2024-149AF,2026-06-09T04:57:04.351104,15.41891132,.00021945,97.3718,244.0489,304.4973,55.6066,0,U,60497,999,10110,.36869715E-3,.15585E-3,0
NUSAT-48 (HENRIETTA LEAVITT),2024-149AG,2026-06-09T19:57:11.099808,15.29992725,.00025719,97.3912,242.3687,315.4018,44.7015,0,U,60498,999,10101,.30885352E-3,.8893E-4,0
FLOCK 4BE-30,2024-149AH,2026-06-09T17:32:34.403136,15.54678991,.00032181,97.3780,246.0089,241.3656,118.7275,0,U,60499,999,10061,.18842407E-2,.126567E-2,0
NUSAT-49 (KLARA DAN VON NEUMANN),2024-149AJ,2026-06-09T11:34:51.927744,15.29818787,.00016485,97.3778,241.8242,17.2484,342.8812,0,U,60500,999,10095,.27960078E-3,.8E-4,0
FLOCK 4BE-11,2024-149AK,2026-06-09T04:55:25.932864,15.42722134,.0002338,97.3699,244.2706,303.1855,56.9168,0,U,60501,999,10112,.35067433E-3,.15236E-3,0
YAM-7,2024-149AN,2026-06-09T17:46:42.471840,15.31717064,.00024981,97.3780,241.0210,347.0394,13.0783,0,U,60504,999,10091,.21858843E-3,.6617E-4,0
FLOCK 4BE-24,2024-149AP,2026-06-09T17:03:50.768928,15.42799545,.00025451,97.3713,245.0349,313.1641,46.9394,0,U,60505,999,10121,.4459702E-3,.19461E-3,0
LUR-1,2024-149AQ,2026-06-09T17:20:48.041664,15.30009381,.00034101,97.3736,239.6055,354.0098,6.1101,0,U,60506,999,10083,.22053566E-3,.6331E-4,0
